[{"OBJECT_NAME":"SITRO-AIS 16","OBJECT_ID":"2024-199C","EPOCH":"2026-03-09T22:02:52.039104","MEAN_MOTION":14.97049887,"ECCENTRICITY":0.00080733,"INCLINATION":97.3322,"RA_OF_ASC_NODE":274.4213,"ARG_OF_PERICENTER":52.0818,"MEAN_ANOMALY":308.1134,"EPHEMERIS_TYPE":0,"CLASSIFICATION_TYPE":"U","NORAD_CAT_ID":61737,"ELEMENT_SET_NO":999,"REV_AT_EPOCH":11696,"BSTAR":0.00041232113,"MEAN_MOTION_DOT":4.701e-5,"MEAN_MOTION_DDOT":0},{"OBJECT_NAME":"CZ-6A DEB","OBJECT_ID":"2024-140ACJ","EPOCH":"2026-03-09T13:34:40.812960","MEAN_MOTION":14.75825013,"ECCENTRICITY":0.00997158,"INCLINATION":89.1651,"RA_OF_ASC_NODE":293.465,"ARG_OF_PERICENTER":131.8399,"MEAN_ANOMALY":229.139,"EPHEMERIS_TYPE":0,"CLASSIFICATION_TYPE":"U","NORAD_CAT_ID":61818,"ELEMENT_SET_NO":999,"REV_AT_EPOCH":7745,"BSTAR":0.0027745795,"MEAN_MOTION_DOT":0.00020689,"MEAN_MOTION_DDOT":0}]
